{
    "links": {
        "self": "http://www.neowsapp.com/rest/v1/neo/3991642?api_key=iIulBulltgU6a56xZRHN4H3l9WmuAYTsLGpBGhQ2"
    },
    "id": "3991642",
    "neo_reference_id": "3991642",
    "name": "(2020 CA3)",
    "designation": "2020 CA3",
    "nasa_jpl_url": "http://ssd.jpl.nasa.gov/sbdb.cgi?sstr=3991642",
    "absolute_magnitude_h": 25.191,
    "estimated_diameter": {
        "kilometers": {
            "estimated_diameter_min": 0.0243419282,
            "estimated_diameter_max": 0.0544302061
        },
        "meters": {
            "estimated_diameter_min": 24.3419281737,
            "estimated_diameter_max": 54.4302060998
        },
        "miles": {
            "estimated_diameter_min": 0.0151253683,
            "estimated_diameter_max": 0.0338213516
        },
        "feet": {
            "estimated_diameter_min": 79.8619716294,
            "estimated_diameter_max": 178.5767973804
        }
    },
    "is_potentially_hazardous_asteroid": false,
    "close_approach_data": [
        {
            "close_approach_date": "1962-06-07",
            "close_approach_date_full": "1962-Jun-07 09:20",
            "epoch_date_close_approach": -238862400000,
            "relative_velocity": {
                "kilometers_per_second": "9.2821921616",
                "kilometers_per_hour": "33415.8917815814",
                "miles_per_hour": "20763.3356461721"
            },
            "miss_distance": {
                "astronomical": "0.1473253235",
                "lunar": "57.3095508415",
                "kilometers": "22039554.592660945",
                "miles": "13694744.190153241"
            },
            "orbiting_body": "Earth"
        },
        {
            "close_approach_date": "1970-06-28",
            "close_approach_date_full": "1970-Jun-28 16:45",
            "epoch_date_close_approach": 15439500000,
            "relative_velocity": {
                "kilometers_per_second": "19.5525142736",
                "kilometers_per_hour": "70389.0513848477",
                "miles_per_hour": "43737.019178546"
            },
            "miss_distance": {
                "astronomical": "0.482834187",
                "lunar": "187.822498743",
                "kilometers": "72230965.93838169",
                "miles": "44882241.016939722"
            },
            "orbiting_body": "Earth"
        },
        {
            "close_approach_date": "2012-02-17",
            "close_approach_date_full": "2012-Feb-17 17:27",
            "epoch_date_close_approach": 1329499620000,
            "relative_velocity": {
                "kilometers_per_second": "14.6593684107",
                "kilometers_per_hour": "52773.7262784944",
                "miles_per_hour": "32791.5411978789"
            },
            "miss_distance": {
                "astronomical": "0.2997416136",
                "lunar": "116.5994876904",
                "kilometers": "44840706.944923032",
                "miles": "27862723.2839285616"
            },
            "orbiting_body": "Earth"
        },
        {
            "close_approach_date": "2020-03-10",
            "close_approach_date_full": "2020-Mar-10 14:44",
            "epoch_date_close_approach": 1583851440000,
            "relative_velocity": {
                "kilometers_per_second": "6.2704750785",
                "kilometers_per_hour": "22573.710282513",
                "miles_per_hour": "14026.4257030426"
            },
            "miss_distance": {
                "astronomical": "0.0351688808",
                "lunar": "13.6806946312",
                "kilometers": "5261189.657963896",
                "miles": "3269151.6608819248"
            },
            "orbiting_body": "Earth"
        },
        {
            "close_approach_date": "2122-08-19",
            "close_approach_date_full": "2122-Aug-19 01:42",
            "epoch_date_close_approach": 4816546920000,
            "relative_velocity": {
                "kilometers_per_second": "7.7496152674",
                "kilometers_per_hour": "27898.6149627735",
                "miles_per_hour": "17335.11439173"
            },
            "miss_distance": {
                "astronomical": "0.0966037694",
                "lunar": "37.5788662966",
                "kilometers": "14451718.136211178",
                "miles": "8979881.2472151364"
            },
            "orbiting_body": "Mars"
        }
    ],
    "orbital_data": {
        "orbit_id": "10",
        "orbit_determination_date": "2020-03-12 06:06:52",
        "first_observation_date": "2020-02-15",
        "last_observation_date": "2020-03-07",
        "data_arc_in_days": 21,
        "observations_used": 62,
        "orbit_uncertainty": "7",
        "minimum_orbit_intersection": ".0321811",
        "jupiter_tisserand_invariant": "4.775",
        "epoch_osculation": "2459000.5",
        "eccentricity": ".289140923274932",
        "semi_major_axis": "1.371289625410457",
        "inclination": "4.101069139009246",
        "ascending_node_longitude": "328.8067879928543",
        "orbital_period": "586.532676683556",
        "perihelion_distance": ".9747936770419421",
        "perihelion_argument": "235.3985996117971",
        "aphelion_distance": "1.767785573778973",
        "perihelion_time": "2458948.403514209609",
        "mean_anomaly": "31.97560107066148",
        "mean_motion": ".6137765452993268",
        "equinox": "J2000",
        "orbit_class": {
            "orbit_class_type": "APO",
            "orbit_class_description": "Near-Earth asteroid orbits which cross the Earth’s orbit similar to that of 1862 Apollo",
            "orbit_class_range": "a (semi-major axis) > 1.0 AU; q (perihelion) < 1.017 AU"
        }
    },
    "is_sentry_object": false
}